[
    {
        "Altitude(m)": 604221.1927550622,
        "Argument of Periapsis(deg)": 0.0,
        "Eccentricity": 0.0,
        "Inclination(deg)": 60.0,
        "Latitude(deg)": 14.11717986192719,
        "Longitude(deg)": -101.66584289762157,
        "Mean Anomaly(deg)": -343.63640000000004,
        "RAAN(deg)": 350.0,
        "Satellite Name": "Test1 1541",
        "Satellite Number": 1541,
        "Semi-Major Axis(m)": 6980739.136638005,
        "Time(s)": 0
    },
    {
        "Altitude(m)": 604235.3332557579,
        "Argument of Periapsis(deg)": 0.00010418945913296404,
        "Eccentricity": 0.0,
        "Inclination(deg)": 60.0,
        "Latitude(deg)": 14.651576563355286,
        "Longitude(deg)": -101.37739590880197,
        "Mean Anomaly(deg)": -343.01629385453816,
        "RAAN(deg)": 349.99957995086027,
        "Satellite Name": "Test1 1541",
        "Satellite Number": 1541,
        "Semi-Major Axis(m)": 6980739.136638005,
        "Time(s)": 10
    }
]